{
  "type": "FeatureCollection",
  "features": [
    {
      "type": "Feature",
      "properties": {
        "norad_id": 31619,
        "name": "FENGYUN 1C DEB",
        "group": "fengyun-1c-debris",
        "lat": 11.197604042752483,
        "lon": 4.595482471842283,
        "alt_km": 641.6560351020316,
        "timestamp": "2025-12-15T19:00:45.640074+00:00",
        "meta_object_name": "FENGYUN 1C DEB",
        "meta_object_id": "1999-025BZZ",
        "meta_epoch": "2025-12-14T06:41:19.135680",
        "meta_mean_motion": 14.85669365,
        "meta_eccentricity": 0.00952346,
        "meta_inclination": 99.0723,
        "meta_ra_of_asc_node": 181.0591,
        "meta_arg_of_pericenter": 289.8813,
        "meta_mean_anomaly": 69.2155,
        "meta_ephemeris_type": 0,
        "meta_classification_type": "U",
        "meta_norad_cat_id": 31619,
        "meta_element_set_no": 999,
        "meta_rev_at_epoch": 63511,
        "meta_bstar": 0.0050437795,
        "meta_mean_motion_dot": 0.00047677,
        "meta_mean_motion_ddot": 0,
        "tle_line1": "1 31619U 99025BZZ 25348.27869370  .00047677  00000+0  50438-2 0  9991",
        "tle_line2": "2 31619  99.0723 181.0591 0095234 289.8813  69.2155 14.85669365635116"
      },
      "geometry": {
        "type": "Point",
        "coordinates": [
          4.595482471842283,
          11.197604042752483
        ]
      }
    },
    {
      "type": "Feature",
      "properties": {
        "norad_id": 31620,
        "name": "FENGYUN 1C DEB",
        "group": "fengyun-1c-debris",
        "lat": -21.669887951559996,
        "lon": 77.5398922037296,
        "alt_km": 764.8453656561551,
        "timestamp": "2025-12-15T19:00:45.640085+00:00",
        "meta_object_name": "FENGYUN 1C DEB",
        "meta_object_id": "1999-025CAA",
        "meta_epoch": "2025-12-14T11:22:10.162272",
        "meta_mean_motion": 14.37262529,
        "meta_eccentricity": 0.00200194,
        "meta_inclination": 98.8873,
        "meta_ra_of_asc_node": 72.6139,
        "meta_arg_of_pericenter": 38.5299,
        "meta_mean_anomaly": 321.7311,
        "meta_ephemeris_type": 0,
        "meta_classification_type": "U",
        "meta_norad_cat_id": 31620,
        "meta_element_set_no": 999,
        "meta_rev_at_epoch": 65869,
        "meta_bstar": 0.0025481582,
        "meta_mean_motion_dot": 7.572e-05,
        "meta_mean_motion_ddot": 0,
        "tle_line1": "1 31620U 99025CAA 25348.47372873  .00007572  00000+0  25482-2 0  9993",
        "tle_line2": "2 31620  98.8873  72.6139 0020019  38.5299 321.7311 14.37262529658696"
      },
      "geometry": {
        "type": "Point",
        "coordinates": [
          77.5398922037296,
          -21.669887951559996
        ]
      }
    },
    {
      "type": "Feature",
      "properties": {
        "norad_id": 31622,
        "name": "FENGYUN 1C DEB",
        "group": "fengyun-1c-debris",
        "lat": -36.90244024447074,
        "lon": 91.33120688863568,
        "alt_km": 763.421298568569,
        "timestamp": "2025-12-15T19:00:45.640095+00:00",
        "meta_object_name": "FENGYUN 1C DEB",
        "meta_object_id": "1999-025CAC",
        "meta_epoch": "2025-12-14T05:03:46.525824",
        "meta_mean_motion": 14.37204764,
        "meta_eccentricity": 0.00150425,
        "meta_inclination": 98.816,
        "meta_ra_of_asc_node": 83.0194,
        "meta_arg_of_pericenter": 337.6158,
        "meta_mean_anomaly": 88.4729,
        "meta_ephemeris_type": 0,
        "meta_classification_type": "U",
        "meta_norad_cat_id": 31622,
        "meta_element_set_no": 999,
        "meta_rev_at_epoch": 95793,
        "meta_bstar": 0.0021461794,
        "meta_mean_motion_dot": 6.355e-05,
        "meta_mean_motion_ddot": 0,
        "tle_line1": "1 31622U 99025CAC 25348.21095516  .00006355  00000+0  21462-2 0  9995",
        "tle_line2": "2 31622  98.8160  83.0194 0015042 337.6158  88.4729 14.37204764957937"
      },
      "geometry": {
        "type": "Point",
        "coordinates": [
          91.33120688863568,
          -36.90244024447074
        ]
      }
    },
    {
      "type": "Feature",
      "properties": {
        "norad_id": 31623,
        "name": "FENGYUN 1C DEB",
        "group": "fengyun-1c-debris",
        "lat": 17.88509255178209,
        "lon": -161.68296644080232,
        "alt_km": 820.6611443171914,
        "timestamp": "2025-12-15T19:00:45.640105+00:00",
        "meta_object_name": "FENGYUN 1C DEB",
        "meta_object_id": "1999-025CAD",
        "meta_epoch": "2025-12-02T20:02:22.350624",
        "meta_mean_motion": 13.82580933,
        "meta_eccentricity": 0.01951152,
        "meta_inclination": 97.6304,
        "meta_ra_of_asc_node": 190.283,
        "meta_arg_of_pericenter": 33.7651,
        "meta_mean_anomaly": 327.5758,
        "meta_ephemeris_type": 0,
        "meta_classification_type": "U",
        "meta_norad_cat_id": 31623,
        "meta_element_set_no": 999,
        "meta_rev_at_epoch": 57783,
        "meta_bstar": 0.00047153491,
        "meta_mean_motion_dot": 5.61e-06,
        "meta_mean_motion_ddot": 0,
        "tle_line1": "1 31623U 99025CAD 25336.83498091  .00000561  00000+0  47153-3 0  9995",
        "tle_line2": "2 31623  97.6304 190.2830 0195115  33.7651 327.5758 13.82580933577835"
      },
      "geometry": {
        "type": "Point",
        "coordinates": [
          -161.68296644080232,
          17.88509255178209
        ]
      }
    },
    {
      "type": "Feature",
      "properties": {
        "norad_id": 31625,
        "name": "FENGYUN 1C DEB",
        "group": "fengyun-1c-debris",
        "lat": 35.5445860371265,
        "lon": -97.65896924863203,
        "alt_km": 782.7081325225072,
        "timestamp": "2025-12-15T19:00:45.640115+00:00",
        "meta_object_name": "FENGYUN 1C DEB",
        "meta_object_id": "1999-025CAF",
        "meta_epoch": "2025-12-14T04:32:01.404096",
        "meta_mean_motion": 14.55401369,
        "meta_eccentricity": 0.01492348,
        "meta_inclination": 98.8061,
        "meta_ra_of_asc_node": 74.2921,
        "meta_arg_of_pericenter": 11.3756,
        "meta_mean_anomaly": 15.8535,
        "meta_ephemeris_type": 0,
        "meta_classification_type": "U",
        "meta_norad_cat_id": 31625,
        "meta_element_set_no": 999,
        "meta_rev_at_epoch": 98414,
        "meta_bstar": 0.00019660891,
        "meta_mean_motion_dot": 9.32e-06,
        "meta_mean_motion_ddot": 0,
        "tle_line1": "1 31625U 99025CAF 25348.18890514  .00000932  00000+0  19661-3 0  9999",
        "tle_line2": "2 31625  98.8061  74.2921 0149234  11.3756  15.8535 14.55401369984143"
      },
      "geometry": {
        "type": "Point",
        "coordinates": [
          -97.65896924863203,
          35.5445860371265
        ]
      }
    },
    {
      "type": "Feature",
      "properties": {
        "norad_id": 31627,
        "name": "FENGYUN 1C DEB",
        "group": "fengyun-1c-debris",
        "lat": 22.109064056605646,
        "lon": -138.8726489193255,
        "alt_km": 736.9965551284085,
        "timestamp": "2025-12-15T19:00:45.640126+00:00",
        "meta_object_name": "FENGYUN 1C DEB",
        "meta_object_id": "1999-025CAH",
        "meta_epoch": "2025-11-26T09:13:22.975680",
        "meta_mean_motion": 14.35408996,
        "meta_eccentricity": 0.00515931,
        "meta_inclination": 98.5313,
        "meta_ra_of_asc_node": 18.4415,
        "meta_arg_of_pericenter": 201.9005,
        "meta_mean_anomaly": 157.9975,
        "meta_ephemeris_type": 0,
        "meta_classification_type": "U",
        "meta_norad_cat_id": 31627,
        "meta_element_set_no": 999,
        "meta_rev_at_epoch": 64532,
        "meta_bstar": 0.0013473839,
        "meta_mean_motion_dot": 3.885e-05,
        "meta_mean_motion_ddot": 0,
        "tle_line1": "1 31627U 99025CAH 25330.38429370  .00003885  00000+0  13474-2 0  9997",
        "tle_line2": "2 31627  98.5313  18.4415 0051593 201.9005 157.9975 14.35408996645325"
      },
      "geometry": {
        "type": "Point",
        "coordinates": [
          -138.8726489193255,
          22.109064056605646
        ]
      }
    },
    {
      "type": "Feature",
      "properties": {
        "norad_id": 31628,
        "name": "FENGYUN 1C DEB",
        "group": "fengyun-1c-debris",
        "lat": -48.94630351303531,
        "lon": -139.96710911018138,
        "alt_km": 958.4986461582284,
        "timestamp": "2025-12-15T19:00:45.640136+00:00",
        "meta_object_name": "FENGYUN 1C DEB",
        "meta_object_id": "1999-025CAJ",
        "meta_epoch": "2025-12-11T07:54:48.314304",
        "meta_mean_motion": 13.86824838,
        "meta_eccentricity": 0.01689763,
        "meta_inclination": 102.2698,
        "meta_ra_of_asc_node": 199.7269,
        "meta_arg_of_pericenter": 223.5852,
        "meta_mean_anomaly": 135.1839,
        "meta_ephemeris_type": 0,
        "meta_classification_type": "U",
        "meta_norad_cat_id": 31628,
        "meta_element_set_no": 999,
        "meta_rev_at_epoch": 93280,
        "meta_bstar": 0.0035626091,
        "meta_mean_motion_dot": 4.587e-05,
        "meta_mean_motion_ddot": 0,
        "tle_line1": "1 31628U 99025CAJ 25345.32972586  .00004587  00000+0  35626-2 0  9993",
        "tle_line2": "2 31628 102.2698 199.7269 0168976 223.5852 135.1839 13.86824838932800"
      },
      "geometry": {
        "type": "Point",
        "coordinates": [
          -139.96710911018138,
          -48.94630351303531
        ]
      }
    }
  ]
}